     2.11           G: GLONASS NAV DATA                     RINEX VERSION / TYPE
gfzrnx-1.11-7352    FILE MERGE          20210304 001345 UTC PGM / RUN BY / DATE 
    18                  GPS                                 LEAP SECONDS        
                                                            END OF HEADER
24 21  3  3  5 15  0.0 3.356300294399e-05 1.818989403546e-12 3.090000000000e+04
   -8.049056197879e+03-1.692511976251e+00 0.000000000000e+00 0.000000000000e+00
    1.726085125185e+04 1.600465781895e+00 3.725290298462e-09 2.000000000000e+00
   -1.695248850629e+04 2.429620393940e+00-9.313225746155e-10 0.000000000000e+00
24 21  3  3  5 45  0.0 3.356300294399e-05 1.818989403546e-12 3.090000000000e+04
   -1.046200880114e+04-9.871183439231e-01 0.000000000000e+00 0.000000000000e+00
    1.993446793890e+04 1.324268503610e+00 3.725290298462e-09 2.000000000000e+00
   -1.197965926813e+04 3.059783293967e+00-9.313225746155e-10 0.000000000000e+00
24 21  3  3  6 15  0.0 3.356300294399e-05 1.818989403546e-12 3.090000000000e+04
   -1.163147618541e+04-3.292855963504e-01 0.000000000000e+00 0.000000000000e+00
    2.187137029873e+04 7.881564339349e-01 3.725290298462e-09 2.000000000000e+00
   -6.079844350984e+03 3.452941427223e+00-9.313225746155e-10 0.000000000000e+00
24 21  3  3  6 45  0.0 3.356300294399e-05 1.818989403546e-12 3.090000000000e+04
   -1.173710166885e+04 1.800981241107e-01 0.000000000000e+00 0.000000000000e+00
    2.265030167114e+04 5.068222672947e-02 3.725290298462e-09 2.000000000000e+00
    2.901982074245e+02 3.578911791343e+00-9.313225746155e-10 0.000000000000e+00
24 21  3  3  7 15  0.0 3.356300294399e-05 1.818989403546e-12 3.090000000000e+04
   -1.111606341114e+04 4.693000663129e-01 0.000000000000e+00 0.000000000000e+00
    2.198867178832e+04-7.947044792016e-01 3.725290298462e-09 2.000000000000e+00
    6.637834297031e+03 3.428262354842e+00-9.313225746155e-10 0.000000000000e+00
24 21  3  3  7 45  0.0 3.356300294399e-05 1.818989403546e-12 3.090000000000e+04
   -1.019926002464e+04 5.073160494223e-01 0.000000000000e+00 0.000000000000e+00
    1.979262208093e+04-1.634606025043e+00 3.725290298462e-09 2.000000000000e+00
    1.247273670463e+04 3.012954689352e+00-9.313225746155e-10 0.000000000000e+00
